H1 CPF 01  gfz 2022 06 24 00  6751 tandemx   
H2 1003001  6202 36605    2022 06 24 00 59 42 2022 06 29 00 00 42   120 1 1  0 0 0
H9
10 0 59756  62622.000000  0    5673034.663    430459.635   3874916.488
10 0 59756  62742.000000  0    5130006.408    201054.765   4583427.384
10 0 59756  62862.000000  0    4493366.251    -21541.661   5211263.572
10 0 59756  62982.000000  0    3774435.755   -231900.420   5747406.919
10 0 59756  63102.000000  0    2986057.688   -425020.546   6182461.697
10 0 59756  63222.000000  0    2142359.462   -596440.119   6508813.583
10 0 59756  63342.000000  0    1258495.394   -742333.435   6720757.518
10 0 59756  63462.000000  0     350370.622   -859592.487   6814592.775
10 0 59756  63582.000000  0    -565646.763   -945890.610   6788682.365
10 0 59756  63702.000000  0   -1473019.977   -999728.109   6643478.879
10 0 59756  63822.000000  0   -2355340.715  -1020458.315   6381516.429
10 0 59756  63942.000000  0   -3196624.079  -1008293.749   6007369.304
10 0 59756  64062.000000  0   -3981599.412   -964292.687   5527578.983
10 0 59756  64182.000000  0   -4695992.435   -890327.300   4950546.476
10 0 59756  64302.000000  0   -5326791.988   -789032.712   4286390.522
10 0 59756  64422.000000  0   -5862495.297   -663737.912   3546773.581
10 0 59756  64542.000000  0   -6293326.186   -518379.979   2744699.105
10 0 59756  64662.000000  0   -6611423.759   -357403.460   1894283.890
10 0 59756  64782.000000  0   -6810996.341   -185646.830   1010505.812
10 0 59756  64902.000000  0   -6888433.813     -8219.752    108932.910
10 0 59756  65022.000000  0   -6842376.262    169626.577   -794559.475
10 0 59756  65142.000000  0   -6673736.694    342632.767  -1684077.636
10 0 59756  65262.000000  0   -6385677.713    505663.969  -2543996.215
10 0 59756  65382.000000  0   -5983546.097    653839.230  -3359239.189
10 0 59756  65502.000000  0   -5474761.476    782654.469  -4115549.505
10 0 59756  65622.000000  0   -4868665.812    888095.622  -4799737.473
10 0 59756  65742.000000  0   -4176338.761    966739.070  -5399906.380
10 0 59756  65862.000000  0   -3410383.950   1015837.462  -5905650.938
10 0 59756  65982.000000  0   -2584691.328   1033388.799  -6308227.093
10 0 59756  66102.000000  0   -1714181.465   1018188.261  -6600691.260
10 0 59756  66222.000000  0    -814535.143    969863.041  -6778009.079
10 0 59756  66342.000000  0      98085.465    888888.069  -6837131.277
10 0 59756  66462.000000  0    1007319.122    776583.494  -6777040.310
10 0 59756  66582.000000  0    1896891.942    635093.479  -6598768.642
10 0 59756  66702.000000  0    2750902.955    467346.683  -6305382.663
10 0 59756  66822.000000  0    3554103.410    276999.498  -5901935.532
10 0 59756  66942.000000  0    4292165.994     68361.528  -5395388.217
10 0 59756  67062.000000  0    4951940.479   -153694.684  -4794501.018
10 0 59756  67182.000000  0    5521693.956   -383838.373  -4109693.944
10 0 59756  67302.000000  0    5991327.790   -616398.468  -3352875.522
10 0 59756  67422.000000  0    6352567.394   -845492.241  -2537243.858
10 0 59756  67542.000000  0    6599120.966  -1065162.340  -1677061.202
10 0 59756  67662.000000  0    6726801.707  -1269518.179   -787404.832
10 0 59756  67782.000000  0    6733609.500  -1452878.751    116100.126
10 0 59756  67902.000000  0    6619770.442  -1609913.300   1017561.116
10 0 59756  68022.000000  0    6387730.809  -1735776.216   1901106.229
10 0 59756  68142.000000  0    6042106.768  -1826232.780   2751172.693
10 0 59756  68262.000000  0    5589589.423  -1877771.115   3552790.128
10 0 59756  68382.000000  0    5038808.324  -1887699.071   4291850.259
10 0 59756  68502.000000  0    4400158.163  -1854222.809   4955358.159
10 0 59756  68622.000000  0    3685594.373  -1776504.952   5531661.388
10 0 59756  68742.000000  0    2908400.140  -1654702.403   6010653.727
10 0 59756  68862.000000  0    2082931.142  -1489982.281   6383947.154
10 0 59756  68982.000000  0    1224345.328  -1284516.602   6645013.060
10 0 59756  69102.000000  0     348320.700  -1041454.988   6789290.916
10 0 59756  69222.000000  0    -529232.528   -764875.758   6814262.274
10 0 59756  69342.000000  0   -1392460.013   -459717.257   6719490.920
10 0 59756  69462.000000  0   -2225848.301   -131689.917   6506629.911
10 0 59756  69582.000000  0   -3014502.460    212829.932   6179395.025
10 0 59756  69702.000000  0   -3744413.111    566922.651   5743504.942
10 0 59756  69822.000000  0   -4402709.046    923262.041   5206587.451
10 0 59756  69942.000000  0   -4977890.094   1274264.463   4578051.890
10 0 59756  70062.000000  0   -5460036.102   1612247.955   3868929.169
10 0 59756  70182.000000  0   -5840986.320   1929597.317   3091680.833
10 0 59756  70302.000000  0   -6114486.105   2218931.918   2259981.223
10 0 59756  70422.000000  0   -6276298.069   2473272.383   1388475.322
10 0 59756  70542.000000  0   -6324273.952   2686202.405    492515.320
10 0 59756  70662.000000  0   -6258383.355   2852020.596   -412117.917
10 0 59756  70782.000000  0   -6080700.039   2965878.626  -1309501.626
10 0 59756  70902.000000  0   -5795345.597   3023902.200  -2183860.212
10 0 59756  71022.000000  0   -5408391.850   3023292.282  -3019851.150
10 0 59756  71142.000000  0   -4927724.218   2962402.721  -3802839.302
10 0 59756  71262.000000  0   -4362871.660   2840793.832  -4519154.375
10 0 59756  71382.000000  0   -3724807.753   2659260.649  -5156326.487
10 0 59756  71502.000000  0   -3025728.624   2419835.786  -5703295.667
10 0 59756  71622.000000  0   -2278814.742   2125768.413  -6150593.854
10 0 59756  71742.000000  0   -1497978.659   1781478.955  -6490498.817
10 0 59756  71862.000000  0    -697605.317   1392490.564  -6717154.775
10 0 59756  71982.000000  0     107709.216    965339.818  -6826662.796
10 0 59756  72102.000000  0     903417.227    507468.239  -6817140.138
10 0 59756  72222.000000  0    1675276.253     27095.446  -6688751.196
10 0 59756  72342.000000  0    2409598.733   -466925.224  -6443703.876
10 0 59756  72462.000000  0    3093489.372   -965265.256  -6086216.122
10 0 59756  72582.000000  0    3715069.224  -1458292.227  -5622450.363
10 0 59756  72702.000000  0    4263681.883  -1936251.116  -5060418.441
10 0 59756  72822.000000  0    4730080.718  -2389455.198  -4409854.848
10 0 59756  72942.000000  0    5106590.956  -2808480.873  -3682058.601
10 0 59756  73062.000000  0    5387244.554  -3184362.805  -2889706.385
10 0 59756  73182.000000  0    5567884.888  -3508785.436  -2046637.569
10 0 59756  73302.000000  0    5646236.657  -3774266.046  -1167614.495
10 0 59756  73422.000000  0    5621939.657  -3974325.528   -268062.821
10 0 59756  73542.000000  0    5496544.567  -4103641.532    636204.050
10 0 59756  73662.000000  0    5273469.967  -4158180.726   1529270.655
10 0 59756  73782.000000  0    4957920.604  -4135305.184   2395409.244
10 0 59756  73902.000000  0    4556769.343  -4033848.884   3219365.334
10 0 59756  74022.000000  0    4078407.239  -3854164.724   3986632.848
10 0 59756  74142.000000  0    3532565.238  -3598141.180   4683714.805
10 0 59756  74262.000000  0    2930109.934  -3269186.664   5298363.297
10 0 59756  74382.000000  0    2282821.953  -2872182.659   5819793.284
10 0 59756  74502.000000  0    1603160.342  -2413407.654   6238868.757
10 0 59756  74622.000000  0     904018.596  -1900434.018   6548256.797
10 0 59756  74742.000000  0     198477.822  -1341999.891   6742549.876
10 0 59756  74862.000000  0    -500438.552   -747858.068   6818354.765
10 0 59756  74982.000000  0   -1180004.336   -128604.495   6774347.492
10 0 59756  75102.000000  0   -1828021.312    504510.396   6611294.991
10 0 59756  75222.000000  0   -2433037.509   1139785.525   6332042.646
10 0 59756  75342.000000  0   -2984549.943   1765284.460   5941467.864
10 0 59756  75462.000000  0   -3473188.645   2369059.180   5446400.626
10 0 59756  75582.000000  0   -3890879.956   2939379.534   4855510.725
10 0 59756  75702.000000  0   -4230984.880   3464963.423   4179161.215
10 0 59756  75822.000000  0   -4488410.435   3935203.161   3429231.154
10 0 59756  75942.000000  0   -4659690.991   4340383.464   2618908.759
10 0 59756  76062.000000  0   -4743036.423   4671886.696   1762458.567
10 0 59756  76182.000000  0   -4738346.260   4922379.206    874965.864
10 0 59756  76302.000000  0   -4647189.964   5085972.558    -27935.459
10 0 59756  76422.000000  0   -4472754.288   5158358.200   -930346.068
10 0 59756  76542.000000  0   -4219756.337   5136910.884  -1816392.390
10 0 59756  76662.000000  0   -3894323.769   5020755.571  -2670513.962
10 0 59756  76782.000000  0   -3503850.193   4810800.059  -3477743.453
10 0 59756  76902.000000  0   -3056825.649   4509729.576  -4223971.866
10 0 59756  77022.000000  0   -2562649.498   4121966.646  -4896192.803
10 0 59756  77142.000000  0   -2031430.811   3653598.911  -5482722.495
10 0 59756  77262.000000  0   -1473780.948   3112276.929  -5973395.005
10 0 59756  77382.000000  0    -900601.342   2507082.088  -6359728.940
10 0 59756  77502.000000  0    -322871.672   1848369.085  -6635062.186
10 0 59756  77622.000000  0     248556.795   1147587.427  -6794655.404
10 0 59756  77742.000000  0     803159.695    417084.125  -6835765.287
10 0 59756  77862.000000  0    1330929.382   -330109.810  -6757687.366
10 0 59756  77982.000000  0    1822551.132  -1080507.192  -6561765.289
10 0 59756  78102.000000  0    2269563.242  -1820401.439  -6251369.822
10 0 59756  78222.000000  0    2664500.812  -2536110.485  -5831847.381
10 0 59756  78342.000000  0    3001020.523  -3214225.562  -5310439.259
10 0 59756  78462.000000  0    3274005.650  -3841863.220  -4696167.642
10 0 59756  78582.000000  0    3479645.997  -4406911.073  -3999688.380
10 0 59756  78702.000000  0    3615493.116  -4898264.156  -3233116.977
10 0 59756  78822.000000  0    3680491.182  -5306049.954  -2409826.883
10 0 59756  78942.000000  0    3674979.562  -5621835.448  -1544219.609
10 0 59756  79062.000000  0    3600667.188  -5838808.369   -651472.753
99
